ALOS-4 (DAICHI-4)       
1 60182U 24123A   24289.17785403  .00005444  00000+0  73517-3 0  9991
2 60182  97.9220  24.1073 0001521  98.3847 261.7537 14.79477855 15681
